{
  "type": "FeatureCollection",
  "features": [
    {
      "type": "Feature",
      "properties": {
        "norad_id": 33625,
        "name": "FENGYUN 1C DEB",
        "group": "fengyun-1c-debris",
        "lat": -18.39581912238082,
        "lon": 106.45379467885628,
        "alt_km": 806.6272140109104,
        "timestamp": "2025-12-18T15:47:11.509926+00:00",
        "meta_object_name": "FENGYUN 1C DEB",
        "meta_object_id": "1999-025DDJ",
        "meta_epoch": "2025-12-17T18:30:25.862688",
        "meta_mean_motion": 14.61094935,
        "meta_eccentricity": 0.02257102,
        "meta_inclination": 98.6203,
        "meta_ra_of_asc_node": 102.638,
        "meta_arg_of_pericenter": 119.7403,
        "meta_mean_anomaly": 242.6462,
        "meta_ephemeris_type": 0,
        "meta_classification_type": "U",
        "meta_norad_cat_id": 33625,
        "meta_element_set_no": 999,
        "meta_rev_at_epoch": 61464,
        "meta_bstar": 0.00092873472,
        "meta_mean_motion_dot": 6.506e-05,
        "meta_mean_motion_ddot": 0,
        "tle_line1": "1 33625U 99025DDJ 25351.77113267  .00006506  00000+0  92873-3 0  9992",
        "tle_line2": "2 33625  98.6203 102.6380 0225710 119.7403 242.6462 14.61094935614640"
      },
      "geometry": {
        "type": "Point",
        "coordinates": [
          106.45379467885628,
          -18.39581912238082
        ]
      }
    },
    {
      "type": "Feature",
      "properties": {
        "norad_id": 33630,
        "name": "FENGYUN 1C DEB",
        "group": "fengyun-1c-debris",
        "lat": -65.09707756605002,
        "lon": 117.73808304823203,
        "alt_km": 884.3409545189479,
        "timestamp": "2025-12-18T15:47:11.509936+00:00",
        "meta_object_name": "FENGYUN 1C DEB",
        "meta_object_id": "1999-025DDP",
        "meta_epoch": "2025-12-16T13:17:07.494144",
        "meta_mean_motion": 14.17726795,
        "meta_eccentricity": 0.01350341,
        "meta_inclination": 98.616,
        "meta_ra_of_asc_node": 96.6346,
        "meta_arg_of_pericenter": 57.1725,
        "meta_mean_anomaly": 304.237,
        "meta_ephemeris_type": 0,
        "meta_classification_type": "U",
        "meta_norad_cat_id": 33630,
        "meta_element_set_no": 999,
        "meta_rev_at_epoch": 64465,
        "meta_bstar": 0.00032109765,
        "meta_mean_motion_dot": 6.74e-06,
        "meta_mean_motion_ddot": 0,
        "tle_line1": "1 33630U 99025DDP 25350.55355896  .00000674  00000+0  32110-3 0  9997",
        "tle_line2": "2 33630  98.6160  96.6346 0135034  57.1725 304.2370 14.17726795644657"
      },
      "geometry": {
        "type": "Point",
        "coordinates": [
          117.73808304823203,
          -65.09707756605002
        ]
      }
    },
    {
      "type": "Feature",
      "properties": {
        "norad_id": 33633,
        "name": "FENGYUN 1C DEB",
        "group": "fengyun-1c-debris",
        "lat": 10.364162678032812,
        "lon": 85.38734617024126,
        "alt_km": 861.6125429952735,
        "timestamp": "2025-12-18T15:47:11.509946+00:00",
        "meta_object_name": "FENGYUN 1C DEB",
        "meta_object_id": "1999-025DDS",
        "meta_epoch": "2025-12-14T05:17:20.235840",
        "meta_mean_motion": 14.19354186,
        "meta_eccentricity": 0.00834952,
        "meta_inclination": 99.0564,
        "meta_ra_of_asc_node": 82.5239,
        "meta_arg_of_pericenter": 146.6641,
        "meta_mean_anomaly": 243.3221,
        "meta_ephemeris_type": 0,
        "meta_classification_type": "U",
        "meta_norad_cat_id": 33633,
        "meta_element_set_no": 999,
        "meta_rev_at_epoch": 90732,
        "meta_bstar": 0.0025593474,
        "meta_mean_motion_dot": 5.525e-05,
        "meta_mean_motion_ddot": 0,
        "tle_line1": "1 33633U 99025DDS 25348.22037310  .00005525  00000+0  25593-2 0  9995",
        "tle_line2": "2 33633  99.0564  82.5239 0083495 146.6641 243.3221 14.19354186907329"
      },
      "geometry": {
        "type": "Point",
        "coordinates": [
          85.38734617024126,
          10.364162678032812
        ]
      }
    },
    {
      "type": "Feature",
      "properties": {
        "norad_id": 33637,
        "name": "FENGYUN 1C DEB",
        "group": "fengyun-1c-debris",
        "lat": -79.14055583308591,
        "lon": 166.39791736476013,
        "alt_km": 813.6991977102189,
        "timestamp": "2025-12-18T15:47:11.509956+00:00",
        "meta_object_name": "FENGYUN 1C DEB",
        "meta_object_id": "1999-025DDW",
        "meta_epoch": "2025-12-13T20:55:05.593728",
        "meta_mean_motion": 14.36759768,
        "meta_eccentricity": 0.00830796,
        "meta_inclination": 98.4929,
        "meta_ra_of_asc_node": 32.8364,
        "meta_arg_of_pericenter": 148.1698,
        "meta_mean_anomaly": 212.4548,
        "meta_ephemeris_type": 0,
        "meta_classification_type": "U",
        "meta_norad_cat_id": 33637,
        "meta_element_set_no": 999,
        "meta_rev_at_epoch": 64854,
        "meta_bstar": 0.0014619922,
        "meta_mean_motion_dot": 4.446e-05,
        "meta_mean_motion_ddot": 0,
        "tle_line1": "1 33637U 99025DDW 25347.87159252  .00004446  00000+0  14620-2 0  9999",
        "tle_line2": "2 33637  98.4929  32.8364 0083079 148.1698 212.4548 14.36759768648544"
      },
      "geometry": {
        "type": "Point",
        "coordinates": [
          166.39791736476013,
          -79.14055583308591
        ]
      }
    },
    {
      "type": "Feature",
      "properties": {
        "norad_id": 33638,
        "name": "FENGYUN 1C DEB",
        "group": "fengyun-1c-debris",
        "lat": 40.119208247630446,
        "lon": -124.56705577333275,
        "alt_km": 1153.7321011249269,
        "timestamp": "2025-12-18T15:47:11.509966+00:00",
        "meta_object_name": "FENGYUN 1C DEB",
        "meta_object_id": "1999-025DDX",
        "meta_epoch": "2025-12-16T10:58:25.363200",
        "meta_mean_motion": 13.69321197,
        "meta_eccentricity": 0.02644016,
        "meta_inclination": 98.4653,
        "meta_ra_of_asc_node": 240.7052,
        "meta_arg_of_pericenter": 263.1375,
        "meta_mean_anomaly": 93.9631,
        "meta_ephemeris_type": 0,
        "meta_classification_type": "U",
        "meta_norad_cat_id": 33638,
        "meta_element_set_no": 999,
        "meta_rev_at_epoch": 60966,
        "meta_bstar": 0.00088523672,
        "meta_mean_motion_dot": 9.44e-06,
        "meta_mean_motion_ddot": 0,
        "tle_line1": "1 33638U 99025DDX 25350.45723800  .00000944  00000+0  88524-3 0  9998",
        "tle_line2": "2 33638  98.4653 240.7052 0264401 263.1375  93.9631 13.69321197609664"
      },
      "geometry": {
        "type": "Point",
        "coordinates": [
          -124.56705577333275,
          40.119208247630446
        ]
      }
    },
    {
      "type": "Feature",
      "properties": {
        "norad_id": 33639,
        "name": "FENGYUN 1C DEB",
        "group": "fengyun-1c-debris",
        "lat": 53.902994267081745,
        "lon": 71.60205166487505,
        "alt_km": 780.3157700308784,
        "timestamp": "2025-12-18T15:47:11.509977+00:00",
        "meta_object_name": "FENGYUN 1C DEB",
        "meta_object_id": "1999-025DDY",
        "meta_epoch": "2025-12-14T11:30:34.684704",
        "meta_mean_motion": 14.40475035,
        "meta_eccentricity": 0.00499213,
        "meta_inclination": 98.7123,
        "meta_ra_of_asc_node": 79.4896,
        "meta_arg_of_pericenter": 283.4225,
        "meta_mean_anomaly": 76.1402,
        "meta_ephemeris_type": 0,
        "meta_classification_type": "U",
        "meta_norad_cat_id": 33639,
        "meta_element_set_no": 999,
        "meta_rev_at_epoch": 60607,
        "meta_bstar": 0.0023798225,
        "meta_mean_motion_dot": 7.641e-05,
        "meta_mean_motion_ddot": 0,
        "tle_line1": "1 33639U 99025DDY 25348.47956811  .00007641  00000+0  23798-2 0  9990",
        "tle_line2": "2 33639  98.7123  79.4896 0049921 283.4225  76.1402 14.40475035606072"
      },
      "geometry": {
        "type": "Point",
        "coordinates": [
          71.60205166487505,
          53.902994267081745
        ]
      }
    },
    {
      "type": "Feature",
      "properties": {
        "norad_id": 33640,
        "name": "FENGYUN 1C DEB",
        "group": "fengyun-1c-debris",
        "lat": -3.1613580354441493,
        "lon": -63.847300794409314,
        "alt_km": 795.2580789409394,
        "timestamp": "2025-12-18T15:47:11.509987+00:00",
        "meta_object_name": "FENGYUN 1C DEB",
        "meta_object_id": "1999-025DDZ",
        "meta_epoch": "2025-12-16T15:38:15.571104",
        "meta_mean_motion": 14.45908505,
        "meta_eccentricity": 0.00909711,
        "meta_inclination": 98.8411,
        "meta_ra_of_asc_node": 293.5698,
        "meta_arg_of_pericenter": 147.9721,
        "meta_mean_anomaly": 212.7043,
        "meta_ephemeris_type": 0,
        "meta_classification_type": "U",
        "meta_norad_cat_id": 33640,
        "meta_element_set_no": 999,
        "meta_rev_at_epoch": 92399,
        "meta_bstar": 0.00035805044,
        "meta_mean_motion_dot": 1.289e-05,
        "meta_mean_motion_ddot": 0,
        "tle_line1": "1 33640U 99025DDZ 25350.65156911  .00001289  00000+0  35805-3 0  9993",
        "tle_line2": "2 33640  98.8411 293.5698 0090971 147.9721 212.7043 14.45908505923990"
      },
      "geometry": {
        "type": "Point",
        "coordinates": [
          -63.847300794409314,
          -3.1613580354441493
        ]
      }
    }
  ]
}